COMMENT,ORIGINATOR,NORAD_CAT_ID,OBJECT_NAME,OBJECT_TYPE,CLASSIFICATION_TYPE,INTLDES,EPOCH,EPOCH_MICROSECONDS,MEAN_MOTION,ECCENTRICITY,INCLINATION,RA_OF_ASC_NODE,ARG_OF_PERICENTER,MEAN_ANOMALY,EPHEMERIS_TYPE,ELEMENT_SET_NO,REV_AT_EPOCH,BSTAR,MEAN_MOTION_DOT,MEAN_MOTION_DDOT,FILE,TLE_LINE0,TLE_LINE1,TLE_LINE2,OBJECT_ID,OBJECT_NUMBER,SEMIMAJOR_AXIS,PERIOD,APOGEE,PERIGEE
"GENERATED VIA SPACETRACK.ORG API","JSPOC","309","TIROS 5","PAYLOAD","U","62025A","2016-01-11 19:38:17","991456","14.56497069","0.0200209","58.0908","114.9311","78.5937","283.7504","0","999","82647","3.3499e-05","-1.7e-07","0","1979502","0 TIROS 5","1   309U 62025A   16011.81826379 -.00000017 +00000-0 +33499-4 0  9991","2   309 058.0908 114.9311 0200209 078.5937 283.7504 14.56497069826473","1962-025A","309","7082.644","98.867","846.310","562.708"
"GENERATED VIA SPACETRACK.ORG API","JSPOC","37210","BEIDOU 6","PAYLOAD","U","10057A","2016-01-11 19:38:19","761792","1.00272516","0.0007926","0.8603","46.1157","184.3418","334.9084","0","999","1908","0","-1.11e-06","0","1979119","0 BEIDOU 6","1 37210U 10057A   16011.81828428 -.00000111  00000-0  00000+0 0  9999","2 37210   0.8603  46.1157 0007926 184.3418 334.9084  1.00272516 19082","2010-057A","37210","42164.527","1436.086","35819.811","35752.972"
"GENERATED VIA SPACETRACK.ORG API","JSPOC","29495","OPTUS D1","PAYLOAD","U","06043B","2016-01-11 19:38:19","761792","1.00271104","0.0002821","0.0185","3.4237","285.9702","275.9308","0","999","3392","0","-1.1e-06","0","1979502","0 OPTUS D1","1 29495U 06043B   16011.81828428 -.00000110 +00000-0 +00000-0 0  9995","2 29495 000.0185 003.4237 0002821 285.9702 275.9308 01.00271104033927","2006-043B","29495","42164.922","1436.106","35798.682","35774.893"
"GENERATED VIA SPACETRACK.ORG API","JSPOC","14966","SL-8 R/B","ROCKET BODY","U","84043B","2016-01-11 19:38:22","765920","13.7446276","0.0017444","82.9748","117.5625","81.8511","35.3902","0","999","58822","2.252e-05","3.7e-07","0","1979160","0 SL-8 R/B","1 14966U 84043B   16011.81831905  .00000037  00000-0  22520-4 0  9994","2 14966  82.9748 117.5625 0017444  81.8511  35.3902 13.74462760588224","1984-043B","14966","7361.729","104.768","996.436","970.752"
"GENERATED VIA SPACETRACK.ORG API","JSPOC","37746","GSAT 12","PAYLOAD","U","11034A","2016-01-11 19:38:28","718016","1.00270714","0.0003188","0.0439","243.6338","247.1263","357.6256","0","999","1677","0","-1.64e-06","0","1979274","0 GSAT 12","1 37746U 11034A   16011.81838794 -.00000164  00000-0  00000+0 0  9994","2 37746   0.0439 243.6338 0003188 247.1263 357.6256  1.00270714 16776","2011-034A","37746","42165.032","1436.112","35800.339","35773.454"
"GENERATED VIA SPACETRACK.ORG API","JSPOC","37746","GSAT 12","PAYLOAD","U","11034A","2016-01-11 19:38:28","718016","1.00270714","0.0003188","0.0439","243.6338","247.1263","357.6256","0","999","531","0","-1.64e-06","0","1979502","0 GSAT 12","1 37746U 11034A   16011.81838794 -.00000164 +00000-0 +00000-0 0  9995","2 37746 000.0439 243.6338 0003188 247.1263 357.6256 01.00270714005314","2011-034A","37746","42165.032","1436.112","35800.339","35773.454"
"GENERATED VIA SPACETRACK.ORG API","JSPOC","25306","GLOBALSTAR M014","PAYLOAD","U","98023A","2016-01-11 19:38:29","773824","11.65403473","0.0001693","51.9812","231.4015","95.5196","34.3945","0","999","78964","0.00024537","-6.4e-07","0","1979502","0 GLOBALSTAR M014","1 25306U 98023A   16011.81840016 -.00000064 +00000-0 +24537-3 0  9990","2 25306 051.9812 231.4015 0001693 095.5196 034.3945 11.65403473789640","1998-023A","25306","8217.712","123.562","1840.969","1838.186"
"GENERATED VIA SPACETRACK.ORG API","JSPOC","29052","FORMOSAT 3F","PAYLOAD","U","06011F","2016-01-11 19:38:38","871744","14.28536982","0.0041976","72.033","222.57","291.4959","68.1705","0","999","50851","6.2435e-05","1.17e-06","0","1979502","0 FORMOSAT 3F","1 29052U 06011F   16011.81850546 +.00000117 +00000-0 +62435-4 0  9995","2 29052 072.0330 222.5700 0041976 291.4959 068.1705 14.28536982508513","2006-011F","29052","7174.762","100.802","826.744","766.510"
"GENERATED VIA SPACETRACK.ORG API","JSPOC","15930","COSMOS 1670","PAYLOAD","U","85064A","2016-01-11 19:38:44","751264","13.83708417","0.0067979","64.941","303.2904","196.5696","196.2346","0","999","52671","1.9925e-05","-6.7e-07","0","1979502","0 COSMOS 1670","1 15930U 85064A   16011.81857351 -.00000067 +00000-0 +19925-4 0  9992","2 15930 064.9410 303.2904 0067979 196.5696 196.2346 13.83708417526719","1985-064A","15930","7328.899","104.068","1000.585","900.943"
"GENERATED VIA SPACETRACK.ORG API","JSPOC","22649","COSMOS 2248","PAYLOAD","U","93030D","2016-01-11 19:38:44","869632","12.63434484","0.0009233","82.5765","227.0978","302.2964","57.7233","0","999","4538","0.00014255","3.6e-07","0","1979502","0 COSMOS 2248","1 22649U 93030D   16011.81857488 +.00000036 +00000-0 +14255-3 0  9995","2 22649 082.5765 227.0978 0009233 302.2964 057.7233 12.63434484045382","1993-030D","22649","7786.937","113.975","1415.992","1401.612"
"GENERATED VIA SPACETRACK.ORG API","JSPOC","7349","COSMOS 663","PAYLOAD","U","74048A","2016-01-11 19:38:51","230400","13.7551292","0.0026418","82.9519","116.551","91.3011","58.7543","0","999","8473","4.5316e-05","5.9e-07","0","1979095","0 COSMOS 663","1 07349U 74048A   16011.81864850  .00000059  00000-0  45316-4 0  9992","2 07349  82.9519 116.5510 0026418  91.3011  58.7543 13.75512920 84733","1974-048A","7349","7357.982","104.688","999.285","960.408"
"GENERATED VIA SPACETRACK.ORG API","JSPOC","38997","HJ-1C","PAYLOAD","U","12064A","2016-01-11 19:38:55","156416","15.47469461","0.0015519","97.3106","38.2128","103.3667","11.1334","0","999","17661","0.00021292","0.00010884","0","1979167","0 HJ-1C","1 38997U 12064A   16011.81869394  .00010884  00000-0  21292-3 0  9996","2 38997  97.3106  38.2128 0015519 103.3667  11.1334 15.47469461176616","2012-064A","38997","6802.268","93.055","434.690","413.577"
"GENERATED VIA SPACETRACK.ORG API","JSPOC","28379","ARIANE 5 R/B","ROCKET BODY","U","04027B","2016-01-11 19:39:01","738368","2.07929497","0.7288739","6.4502","143.4629","87.1078","344.7797","0","999","8724","-0.00033885","-2.22e-06","0","1979502","0 ARIANE 5 R/B","1 28379U 04027B   16011.81877012 -.00000222 +00000-0 -33885-3 0  9993","2 28379 006.4502 143.4629 7288739 087.1078 344.7797 02.07929497087243","2004-027B","28379","25929.318","692.542","38450.387","651.980"
"GENERATED VIA SPACETRACK.ORG API","JSPOC","22691","COSMOS 2256","PAYLOAD","U","93038E","2016-01-11 19:39:03","753216","12.63856512","0.0007102","82.5764","130.4851","14.8691","141.1456","0","999","4068","-2.9153e-05","5e-08","0","1979502","0 COSMOS 2256","1 22691U 93038E   16011.81879344 +.00000005 +00000-0 -29153-4 0  9996","2 22691 082.5764 130.4851 0007102 014.8691 141.1456 12.63856512040684","1993-038E","22691","7785.203","113.936","1412.598","1401.539"
"GENERATED VIA SPACETRACK.ORG API","JSPOC","21655","METEOR 3-5","PAYLOAD","U","91056A","2016-01-11 19:39:09","443520","13.17072742","0.0012353","82.5583","311.1046","305.6048","54.3923","0","999","17349","0.00041205","1.71e-06","0","1979114","0 METEOR 3-5","1 21655U 91056A   16011.81885930  .00000171  00000-0  41205-3 0  9995","2 21655  82.5583 311.1046 0012353 305.6048  54.3923 13.17072742173492","1991-056A","21655","7574.058","109.333","1205.279","1186.567"
"GENERATED VIA SPACETRACK.ORG API","JSPOC","33065","ORBCOMM FM 40","PAYLOAD","U","08031F","2016-01-11 19:39:17","909856","14.72670885","0.0007544","48.4464","6.8357","118.4112","304.0213","0","999","40630","9.257e-05","3.95e-06","0","1979145","0 ORBCOMM FM 40","1 33065U 08031F   16011.81895729  .00000395  00000-0  92570-4 0  9991","2 33065  48.4464   6.8357 0007544 118.4112 304.0213 14.72670885406300","2008-031F","33065","7030.691","97.781","657.860","647.252"
"GENERATED VIA SPACETRACK.ORG API","JSPOC","19902","COSMOS 2008","PAYLOAD","U","89025A","2016-01-11 19:39:17","860608","12.57811552","0.0050635","74.0099","141.1287","308.8326","205.6284","0","999","23055","-3.9515e-05","-2.3e-07","0","1979502","0 COSMOS 2008","1 19902U 89025A   16011.81895672 -.00000023 +00000-0 -39515-4 0  9994","2 19902 074.0099 141.1287 0050635 308.8326 205.6284 12.57811552230554","1989-025A","19902","7810.127","114.484","1471.539","1392.445"
"GENERATED VIA SPACETRACK.ORG API","JSPOC","4257","TIMATION 2","PAYLOAD","U","69082C","2016-01-11 19:39:30","418848","13.95708175","0.0018375","70.0161","308.6539","42.8998","347.6322","0","999","35505","5.1265e-05","1.7e-07","0","1979502","0 TIMATION 2","1  4257U 69082C   16011.81910207 +.00000017 +00000-0 +51265-4 0  9991","2  4257 070.0161 308.6539 0018375 042.8998 347.6322 13.95708175355054","1969-082C","4257","7286.832","103.173","922.086","895.307"
"GENERATED VIA SPACETRACK.ORG API","JSPOC","24937","ATLAS 2AS CENTAUR R/B","ROCKET BODY","U","97050B","2016-01-11 19:39:54","277344","2.11514671","0.7382458","18.6696","274.3578","279.3357","11.4583","0","999","13246","0.00016171","-6.3e-07","0","1979275","0 ATLAS 2AS CENTAUR R/B","1 24937U 97050B   16011.81937821 -.00000063  00000-0  16171-3 0  9993","2 24937  18.6696 274.3578 7382458 279.3357  11.4583  2.11514671132468","1997-050B","24937","25635.483","680.803","38182.636","332.060"
"GENERATED VIA SPACETRACK.ORG API","JSPOC","24937","ATLAS 2AS CENTAUR R/B","ROCKET BODY","U","97050B","2016-01-11 19:39:54","277344","2.11514671","0.7382458","18.6696","274.3578","279.3357","11.4583","0","999","13247","0.00016171","-6.3e-07","0","1979502","0 ATLAS 2AS CENTAUR R/B","1 24937U 97050B   16011.81937821 -.00000063 +00000-0 +16171-3 0  9993","2 24937 018.6696 274.3578 7382458 279.3357 011.4583 02.11514671132479","1997-050B","24937","25635.483","680.803","38182.636","332.060"
